[{"OBJECT_NAME":"QIANFAN-27","OBJECT_ID":"2024-185J","EPOCH":"2026-03-09T22:56:55.395744","MEAN_MOTION":14.27448593,"ECCENTRICITY":0.00081881,"INCLINATION":88.9753,"RA_OF_ASC_NODE":66.6975,"ARG_OF_PERICENTER":20.0445,"MEAN_ANOMALY":340.107,"EPHEMERIS_TYPE":0,"CLASSIFICATION_TYPE":"U","NORAD_CAT_ID":61560,"ELEMENT_SET_NO":999,"REV_AT_EPOCH":8260,"BSTAR":0.00025107237,"MEAN_MOTION_DOT":6.31e-6,"MEAN_MOTION_DDOT":0},{"OBJECT_NAME":"CZ-6A DEB","OBJECT_ID":"2024-140DP","EPOCH":"2026-03-09T15:37:46.233120","MEAN_MOTION":14.19801939,"ECCENTRICITY":0.0044813,"INCLINATION":89.2085,"RA_OF_ASC_NODE":300.1206,"ARG_OF_PERICENTER":137.1358,"MEAN_ANOMALY":223.334,"EPHEMERIS_TYPE":0,"CLASSIFICATION_TYPE":"U","NORAD_CAT_ID":60710,"ELEMENT_SET_NO":999,"REV_AT_EPOCH":8151,"BSTAR":0.00013349,"MEAN_MOTION_DOT":3.0e-6,"MEAN_MOTION_DDOT":0}]
